CCSDS_OMM_VERS = 2.0
CREATION_DATE  = 
ORIGINATOR     = 

OBJECT_NAME    = STARLINK-36676
OBJECT_ID      = 2026-036J
CENTER_NAME    = EARTH
REF_FRAME      = TEME
TIME_SYSTEM    = UTC
MEAN_ELEMENT_THEORY = SGP/SGP4

EPOCH          = 2026-02-28T04:00:01.999584
MEAN_MOTION    = 15.94587689
ECCENTRICITY   = .0001828
INCLINATION    = 42.9968
RA_OF_ASC_NODE = 308.3211
ARG_OF_PERICENTER = 275.5525
MEAN_ANOMALY   = 317.6659

EPHEMERIS_TYPE = 0
CLASSIFICATION_TYPE = U
NORAD_CAT_ID   = 67912
ELEMENT_SET_NO = 999
REV_AT_EPOCH   = 211
BSTAR          = -.36284E-2
MEAN_MOTION_DOT = -.1427363E-1
MEAN_MOTION_DDOT = .59422E-3

CCSDS_OMM_VERS = 2.0
CREATION_DATE  = 
ORIGINATOR     = 

OBJECT_NAME    = STARLINK-36690
OBJECT_ID      = 2026-036K
CENTER_NAME    = EARTH
REF_FRAME      = TEME
TIME_SYSTEM    = UTC
MEAN_ELEMENT_THEORY = SGP/SGP4

EPOCH          = 2026-02-28T04:00:01.999584
MEAN_MOTION    = 15.94740500
ECCENTRICITY   = .0001859
INCLINATION    = 42.9968
RA_OF_ASC_NODE = 308.3158
ARG_OF_PERICENTER = 275.0954
MEAN_ANOMALY   = 320.2103

EPHEMERIS_TYPE = 0
CLASSIFICATION_TYPE = U
NORAD_CAT_ID   = 67913
ELEMENT_SET_NO = 999
REV_AT_EPOCH   = 211
BSTAR          = -.35883E-2
MEAN_MOTION_DOT = -.1423263E-1
MEAN_MOTION_DDOT = .592E-3

CCSDS_OMM_VERS = 2.0
CREATION_DATE  = 
ORIGINATOR     = 

OBJECT_NAME    = STARLINK-36724
OBJECT_ID      = 2026-036L
CENTER_NAME    = EARTH
REF_FRAME      = TEME
TIME_SYSTEM    = UTC
MEAN_ELEMENT_THEORY = SGP/SGP4

EPOCH          = 2026-02-28T04:00:01.999584
MEAN_MOTION    = 15.95041789
ECCENTRICITY   = .000189
INCLINATION    = 42.9967
RA_OF_ASC_NODE = 308.3059
ARG_OF_PERICENTER = 275.3088
MEAN_ANOMALY   = 323.8289

EPHEMERIS_TYPE = 0
CLASSIFICATION_TYPE = U
NORAD_CAT_ID   = 67914
ELEMENT_SET_NO = 999
REV_AT_EPOCH   = 211
BSTAR          = -.35257E-2
MEAN_MOTION_DOT = -.1421323E-1
MEAN_MOTION_DDOT = .59231E-3

CCSDS_OMM_VERS = 2.0
CREATION_DATE  = 
ORIGINATOR     = 

OBJECT_NAME    = STARLINK-36723
OBJECT_ID      = 2026-036M
CENTER_NAME    = EARTH
REF_FRAME      = TEME
TIME_SYSTEM    = UTC
MEAN_ELEMENT_THEORY = SGP/SGP4

EPOCH          = 2026-02-28T04:00:01.999584
MEAN_MOTION    = 15.94902272
ECCENTRICITY   = .0001888
INCLINATION    = 42.9968
RA_OF_ASC_NODE = 308.3107
ARG_OF_PERICENTER = 273.0481
MEAN_ANOMALY   = 324.3383

EPHEMERIS_TYPE = 0
CLASSIFICATION_TYPE = U
NORAD_CAT_ID   = 67915
ELEMENT_SET_NO = 999
REV_AT_EPOCH   = 211
BSTAR          = -.3577E-2
MEAN_MOTION_DOT = -.1431082E-1
MEAN_MOTION_DDOT = .59895E-3

CCSDS_OMM_VERS = 2.0
CREATION_DATE  = 
ORIGINATOR     = 

OBJECT_NAME    = STARLINK-36721
OBJECT_ID      = 2026-036N
CENTER_NAME    = EARTH
REF_FRAME      = TEME
TIME_SYSTEM    = UTC
MEAN_ELEMENT_THEORY = SGP/SGP4

EPOCH          = 2026-02-28T04:00:01.999584
MEAN_MOTION    = 15.95197077
ECCENTRICITY   = .0001905
INCLINATION    = 42.9969
RA_OF_ASC_NODE = 308.3008
ARG_OF_PERICENTER = 276.6322
MEAN_ANOMALY   = 324.6858

EPHEMERIS_TYPE = 0
CLASSIFICATION_TYPE = U
NORAD_CAT_ID   = 67916
ELEMENT_SET_NO = 999
REV_AT_EPOCH   = 211
BSTAR          = -.35007E-2
MEAN_MOTION_DOT = -.1423145E-1
MEAN_MOTION_DDOT = .59463E-3

CCSDS_OMM_VERS = 2.0
CREATION_DATE  = 
ORIGINATOR     = 

OBJECT_NAME    = STARLINK-36722
OBJECT_ID      = 2026-036P
CENTER_NAME    = EARTH
REF_FRAME      = TEME
TIME_SYSTEM    = UTC
MEAN_ELEMENT_THEORY = SGP/SGP4

EPOCH          = 2026-02-28T04:00:01.999584
MEAN_MOTION    = 15.95342567
ECCENTRICITY   = .0001866
INCLINATION    = 42.9969
RA_OF_ASC_NODE = 308.2960
ARG_OF_PERICENTER = 272.8559
MEAN_ANOMALY   = 330.3277

EPHEMERIS_TYPE = 0
CLASSIFICATION_TYPE = U
NORAD_CAT_ID   = 67917
ELEMENT_SET_NO = 999
REV_AT_EPOCH   = 211
BSTAR          = -.34631E-2
MEAN_MOTION_DOT = -.1419026E-1
MEAN_MOTION_DDOT = .59235E-3

CCSDS_OMM_VERS = 2.0
CREATION_DATE  = 
ORIGINATOR     = 

OBJECT_NAME    = STARLINK-36341
OBJECT_ID      = 2026-036Q
CENTER_NAME    = EARTH
REF_FRAME      = TEME
TIME_SYSTEM    = UTC
MEAN_ELEMENT_THEORY = SGP/SGP4

EPOCH          = 2026-02-28T04:00:01.999584
MEAN_MOTION    = 15.95628760
ECCENTRICITY   = .0001912
INCLINATION    = 42.9969
RA_OF_ASC_NODE = 308.2864
ARG_OF_PERICENTER = 272.9739
MEAN_ANOMALY   = 333.9870

EPHEMERIS_TYPE = 0
CLASSIFICATION_TYPE = U
NORAD_CAT_ID   = 67918
ELEMENT_SET_NO = 999
REV_AT_EPOCH   = 211
BSTAR          = -.33714E-2
MEAN_MOTION_DOT = -.1403245E-1
MEAN_MOTION_DDOT = .582E-3

CCSDS_OMM_VERS = 2.0
CREATION_DATE  = 
ORIGINATOR     = 

OBJECT_NAME    = STARLINK-36663
OBJECT_ID      = 2026-036R
CENTER_NAME    = EARTH
REF_FRAME      = TEME
TIME_SYSTEM    = UTC
MEAN_ELEMENT_THEORY = SGP/SGP4

EPOCH          = 2026-02-28T04:00:01.999584
MEAN_MOTION    = 15.95488400
ECCENTRICITY   = .0001846
INCLINATION    = 42.9970
RA_OF_ASC_NODE = 308.2913
ARG_OF_PERICENTER = 275.3875
MEAN_ANOMALY   = 329.6860

EPHEMERIS_TYPE = 0
CLASSIFICATION_TYPE = U
NORAD_CAT_ID   = 67919
ELEMENT_SET_NO = 999
REV_AT_EPOCH   = 211
BSTAR          = -.34282E-2
MEAN_MOTION_DOT = -.1415877E-1
MEAN_MOTION_DDOT = .59081E-3

CCSDS_OMM_VERS = 2.0
CREATION_DATE  = 
ORIGINATOR     = 

OBJECT_NAME    = STARLINK-36375
OBJECT_ID      = 2026-036S
CENTER_NAME    = EARTH
REF_FRAME      = TEME
TIME_SYSTEM    = UTC
MEAN_ELEMENT_THEORY = SGP/SGP4

EPOCH          = 2026-02-28T04:00:01.999584
MEAN_MOTION    = 15.95773502
ECCENTRICITY   = .000188
INCLINATION    = 42.9970
RA_OF_ASC_NODE = 308.2815
ARG_OF_PERICENTER = 275.6435
MEAN_ANOMALY   = 333.3207

EPHEMERIS_TYPE = 0
CLASSIFICATION_TYPE = U
NORAD_CAT_ID   = 67920
ELEMENT_SET_NO = 999
REV_AT_EPOCH   = 211
BSTAR          = -.33315E-2
MEAN_MOTION_DOT = -.1397671E-1
MEAN_MOTION_DDOT = .57862E-3

CCSDS_OMM_VERS = 2.0
CREATION_DATE  = 
ORIGINATOR     = 

OBJECT_NAME    = STARLINK-36405
OBJECT_ID      = 2026-036T
CENTER_NAME    = EARTH
REF_FRAME      = TEME
TIME_SYSTEM    = UTC
MEAN_ELEMENT_THEORY = SGP/SGP4

EPOCH          = 2026-02-28T04:00:01.999584
MEAN_MOTION    = 15.95913515
ECCENTRICITY   = .0001876
INCLINATION    = 42.9970
RA_OF_ASC_NODE = 308.2772
ARG_OF_PERICENTER = 273.4058
MEAN_ANOMALY   = 337.2905

EPHEMERIS_TYPE = 0
CLASSIFICATION_TYPE = U
NORAD_CAT_ID   = 67921
ELEMENT_SET_NO = 999
REV_AT_EPOCH   = 211
BSTAR          = -.33002E-2
MEAN_MOTION_DOT = -.1395167E-1
MEAN_MOTION_DDOT = .57754E-3

CCSDS_OMM_VERS = 2.0
CREATION_DATE  = 
ORIGINATOR     = 

OBJECT_NAME    = STARLINK-36383
OBJECT_ID      = 2026-036U
CENTER_NAME    = EARTH
REF_FRAME      = TEME
TIME_SYSTEM    = UTC
MEAN_ELEMENT_THEORY = SGP/SGP4

EPOCH          = 2026-02-28T04:00:01.999584
MEAN_MOTION    = 15.96060953
ECCENTRICITY   = .0001895
INCLINATION    = 42.9972
RA_OF_ASC_NODE = 308.2722
ARG_OF_PERICENTER = 273.6631
MEAN_ANOMALY   = 339.0585

EPHEMERIS_TYPE = 0
CLASSIFICATION_TYPE = U
NORAD_CAT_ID   = 67922
ELEMENT_SET_NO = 999
REV_AT_EPOCH   = 211
BSTAR          = -.32724E-2
MEAN_MOTION_DOT = -.1394604E-1
MEAN_MOTION_DDOT = .57798E-3

CCSDS_OMM_VERS = 2.0
CREATION_DATE  = 
ORIGINATOR     = 

OBJECT_NAME    = STARLINK-36406
OBJECT_ID      = 2026-036V
CENTER_NAME    = EARTH
REF_FRAME      = TEME
TIME_SYSTEM    = UTC
MEAN_ELEMENT_THEORY = SGP/SGP4

EPOCH          = 2026-02-28T04:00:01.999584
MEAN_MOTION    = 15.96198235
ECCENTRICITY   = .0001877
INCLINATION    = 42.9971
RA_OF_ASC_NODE = 308.2676
ARG_OF_PERICENTER = 274.6023
MEAN_ANOMALY   = 339.9228

EPHEMERIS_TYPE = 0
CLASSIFICATION_TYPE = U
NORAD_CAT_ID   = 67923
ELEMENT_SET_NO = 999
REV_AT_EPOCH   = 211
BSTAR          = -.32288E-2
MEAN_MOTION_DOT = -.1386447E-1
MEAN_MOTION_DDOT = .5726E-3

