STARLINK-36676          
1 67912U 26036J   26059.16668981 -.01427363  59422-3 -36284-2 0  9997
2 67912  42.9968 308.3211 0001828 275.5525 317.6659 15.94587689  2116
STARLINK-36690          
1 67913U 26036K   26059.16668981 -.01423263  59200-3 -35883-2 0  9991
2 67913  42.9968 308.3158 0001859 275.0954 320.2103 15.94740500  2119
STARLINK-36724          
1 67914U 26036L   26059.16668981 -.01421323  59231-3 -35257-2 0  9996
2 67914  42.9967 308.3059 0001890 275.3088 323.8289 15.95041789  2113
STARLINK-36723          
1 67915U 26036M   26059.16668981 -.01431082  59895-3 -35770-2 0  9996
2 67915  42.9968 308.3107 0001888 273.0481 324.3383 15.94902272  2111
STARLINK-36721          
1 67916U 26036N   26059.16668981 -.01423145  59463-3 -35007-2 0  9992
2 67916  42.9969 308.3008 0001905 276.6322 324.6858 15.95197077  2116
STARLINK-36722          
1 67917U 26036P   26059.16668981 -.01419026  59235-3 -34631-2 0  9995
2 67917  42.9969 308.2960 0001866 272.8559 330.3277 15.95342567  2114
STARLINK-36341          
1 67918U 26036Q   26059.16668981 -.01403245  58200-3 -33714-2 0  9994
2 67918  42.9969 308.2864 0001912 272.9739 333.9870 15.95628760  2111
STARLINK-36663          
1 67919U 26036R   26059.16668981 -.01415877  59081-3 -34282-2 0  9998
2 67919  42.9970 308.2913 0001846 275.3875 329.6860 15.95488400  2119
STARLINK-36375          
1 67920U 26036S   26059.16668981 -.01397671  57862-3 -33315-2 0  9992
2 67920  42.9970 308.2815 0001880 275.6435 333.3207 15.95773502  2112
STARLINK-36405          
1 67921U 26036T   26059.16668981 -.01395167  57754-3 -33002-2 0  9994
2 67921  42.9970 308.2772 0001876 273.4058 337.2905 15.95913515  2115
STARLINK-36383          
1 67922U 26036U   26059.16668981 -.01394604  57798-3 -32724-2 0  9998
2 67922  42.9972 308.2722 0001895 273.6631 339.0585 15.96060953  2117
STARLINK-36406          
1 67923U 26036V   26059.16668981 -.01386447  57260-3 -32288-2 0  9994
2 67923  42.9971 308.2676 0001877 274.6023 339.9228 15.96198235  2119
